LEMUR-2-DEMBITZ         
1 42842U 17042T   26068.47492167  .00020231  00000+0  76561-3 0  9991
2 42842  97.3807 250.9241 0006961  17.1421 343.0051 15.26947128473114
STARLINK-31750          
1 59552U 24074U   26068.09884508 -.00002253  00000+0 -72380-4 0  9994
2 59552  43.0053 346.8855 0001350 260.2183  99.8516 15.27567967105923
